{
  "type": "FeatureCollection",
  "generator": "overpass-turbo",
  "copyright": "The data included in this document is from www.openstreetmap.org. The data is made available under ODbL.",
  "timestamp": "2026-07-08T23:50:15Z",
  "features": [
    {
      "type": "Feature",
      "properties": {
        "@id": "way/317525706",
        "area": "yes",
        "historic": "yes",
        "leisure": "park",
        "name": "Conjunto Monumental de Panama Viejo",
        "opening_hours": "Tu-Su 08:00-17:00",
        "start_date": "Siglo XVII",
        "tourism": "attraction"
      },
      "geometry": {
        "type": "Polygon",
        "coordinates": [
          [
            [
              -79.4950022,
              9.0035626
            ],
            [
              -79.4947214,
              9.0033786
            ],
            [
              -79.494645,
              9.0030488
            ],
            [
              -79.4944141,
              9.0028501
            ],
            [
              -79.4941923,
              9.0028525
            ],
            [
              -79.4938661,
              9.0028912
            ],
            [
              -79.4936866,
              9.00301
            ],
            [
              -79.493469,
              9.0032234
            ],
            [
              -79.4933231,
              9.0033859
            ],
            [
              -79.4932072,
              9.0035391
            ],
            [
              -79.4930947,
              9.0036927
            ],
            [
              -79.4929466,
              9.0039679
            ],
            [
              -79.4929301,
              9.0040867
            ],
            [
              -79.4928338,
              9.0042376
            ],
            [
              -79.4927151,
              9.0043856
            ],
            [
              -79.4925889,
              9.0044792
            ],
            [
              -79.491662,
              9.0051054
            ],
            [
              -79.4915234,
              9.0051455
            ],
            [
              -79.4913896,
              9.0051641
            ],
            [
              -79.4911508,
              9.0051687
            ],
            [
              -79.4905375,
              9.0053075
            ],
            [
              -79.4899773,
              9.0054043
            ],
            [
              -79.4887504,
              9.005583
            ],
            [
              -79.4863028,
              9.0060019
            ],
            [
              -79.4854019,
              9.0060121
            ],
            [
              -79.484979,
              9.0059433
            ],
            [
              -79.4844964,
              9.0056831
            ],
            [
              -79.4838226,
              9.0057324
            ],
            [
              -79.4836094,
              9.0057826
            ],
            [
              -79.4834362,
              9.006008
            ],
            [
              -79.4831919,
              9.0062759
            ],
            [
              -79.482883,
              9.0066201
            ],
            [
              -79.4830158,
              9.0072922
            ],
            [
              -79.483152,
              9.0074119
            ],
            [
              -79.4831868,
              9.0077006
            ],
            [
              -79.4832226,
              9.0077456
            ],
            [
              -79.4837406,
              9.0083966
            ],
            [
              -79.4842198,
              9.0083125
            ],
            [
              -79.4846279,
              9.0084001
            ],
            [
              -79.4846492,
              9.008684
            ],
            [
              -79.4852171,
              9.0087857
            ],
            [
              -79.4854123,
              9.0090451
            ],
            [
              -79.4855188,
              9.0094237
            ],
            [
              -79.4860209,
              9.0095083
            ],
            [
              -79.4860091,
              9.0097266
            ],
            [
              -79.4860083,
              9.0097413
            ],
            [
              -79.4857448,
              9.0098231
            ],
            [
              -79.4857358,
              9.010038
            ],
            [
              -79.4857222,
              9.0103659
            ],
            [
              -79.4852353,
              9.0103759
            ],
            [
              -79.4852328,
              9.0109013
            ],
            [
              -79.4852303,
              9.0113946
            ],
            [
              -79.4857799,
              9.0115681
            ],
            [
              -79.4860409,
              9.0116995
            ],
            [
              -79.4858929,
              9.0122349
            ],
            [
              -79.485745,
              9.0128979
            ],
            [
              -79.4855766,
              9.0139427
            ],
            [
              -79.4857724,
              9.0139625
            ],
            [
              -79.4859205,
              9.0135287
            ],
            [
              -79.4867667,
              9.0112466
            ],
            [
              -79.4871156,
              9.0107169
            ],
            [
              -79.4870262,
              9.0101421
            ],
            [
              -79.4869359,
              9.009805
            ],
            [
              -79.486961,
              9.0090416
            ],
            [
              -79.4864796,
              9.0088441
            ],
            [
              -79.486473,
              9.0087605
            ],
            [
              -79.4864567,
              9.0085545
            ],
            [
              -79.4865075,
              9.0084176
            ],
            [
              -79.4866082,
              9.0083181
            ],
            [
              -79.4867705,
              9.0082677
            ],
            [
              -79.4868478,
              9.0082563
            ],
            [
              -79.4869262,
              9.0082447
            ],
            [
              -79.487079,
              9.0080359
            ],
            [
              -79.4872028,
              9.0079513
            ],
            [
              -79.4873202,
              9.0079213
            ],
            [
              -79.4875562,
              9.007861
            ],
            [
              -79.4877088,
              9.007822
            ],
            [
              -79.4879981,
              9.0076919
            ],
            [
              -79.4882108,
              9.0075642
            ],
            [
              -79.4885615,
              9.0073322
            ],
            [
              -79.4888382,
              9.0071825
            ],
            [
              -79.4890313,
              9.0071348
            ],
            [
              -79.489125,
              9.0071116
            ],
            [
              -79.4897094,
              9.0067734
            ],
            [
              -79.4904867,
              9.0063756
            ],
            [
              -79.4910421,
              9.0060145
            ],
            [
              -79.4913207,
              9.0058498
            ],
            [
              -79.4918123,
              9.0056762
            ],
            [
              -79.4921655,
              9.0055395
            ],
            [
              -79.4923198,
              9.005494
            ],
            [
              -79.4924476,
              9.0054098
            ],
            [
              -79.492563,
              9.0053152
            ],
            [
              -79.4926286,
              9.0052205
            ],
            [
              -79.4926677,
              9.0050593
            ],
            [
              -79.4927386,
              9.0048034
            ],
            [
              -79.492783,
              9.0047105
            ],
            [
              -79.4928433,
              9.0046141
            ],
            [
              -79.4930936,
              9.004409
            ],
            [
              -79.4933047,
              9.0041934
            ],
            [
              -79.4934609,
              9.0040602
            ],
            [
              -79.4937236,
              9.0039375
            ],
            [
              -79.4943216,
              9.0037728
            ],
            [
              -79.4946091,
              9.0037062
            ],
            [
              -79.4948504,
              9.0036256
            ],
            [
              -79.4950022,
              9.0035626
            ]
          ]
        ]
      },
      "id": "way/317525706"
    },
    {
      "type": "Feature",
      "properties": {
        "@id": "way/375879965",
        "building": "yes",
        "name": "La Casa del Jamón",
        "shop": "supermarket"
      },
      "geometry": {
        "type": "Polygon",
        "coordinates": [
          [
            [
              -79.4799356,
              9.012997
            ],
            [
              -79.479886,
              9.0126921
            ],
            [
              -79.4798355,
              9.0127342
            ],
            [
              -79.4798395,
              9.012759
            ],
            [
              -79.4797858,
              9.0127676
            ],
            [
              -79.4797831,
              9.0127508
            ],
            [
              -79.4794512,
              9.0128034
            ],
            [
              -79.4794104,
              9.0128099
            ],
            [
              -79.4794533,
              9.0130735
            ],
            [
              -79.4797092,
              9.0130329
            ],
            [
              -79.4799356,
              9.012997
            ]
          ]
        ]
      },
      "id": "way/375879965"
    },
    {
      "type": "Feature",
      "properties": {
        "@id": "way/385907562",
        "addr:city": "Panama City",
        "addr:street": "Calle 3",
        "building": "yes",
        "name": "Vikings",
        "shop": "supermarket",
        "source": "KG Ground Survey 2015"
      },
      "geometry": {
        "type": "Polygon",
        "coordinates": [
          [
            [
              -79.4841426,
              9.0135118
            ],
            [
              -79.4840818,
              9.0134366
            ],
            [
              -79.4842436,
              9.0133089
            ],
            [
              -79.4838941,
              9.0128767
            ],
            [
              -79.4836671,
              9.0130557
            ],
            [
              -79.4836542,
              9.0130659
            ],
            [
              -79.4840647,
              9.0135732
            ],
            [
              -79.4841426,
              9.0135118
            ]
          ]
        ]
      },
      "id": "way/385907562"
    },
    {
      "type": "Feature",
      "properties": {
        "@id": "way/385913065",
        "addr:city": "Panama City",
        "addr:street": "Calle 2",
        "building": "yes",
        "name": "Hermanos Gago",
        "shop": "supermarket",
        "source": "KG Ground Survey 2015"
      },
      "geometry": {
        "type": "Polygon",
        "coordinates": [
          [
            [
              -79.4793974,
              9.012323
            ],
            [
              -79.4795954,
              9.0122916
            ],
            [
              -79.4795279,
              9.0118591
            ],
            [
              -79.479496,
              9.0116785
            ],
            [
              -79.4791257,
              9.0117373
            ],
            [
              -79.4792355,
              9.0124117
            ],
            [
              -79.4792608,
              9.0124077
            ],
            [
              -79.4792656,
              9.012437
            ],
            [
              -79.4794121,
              9.0124137
            ],
            [
              -79.4793974,
              9.012323
            ]
          ]
        ]
      },
      "id": "way/385913065"
    },
    {
      "type": "Feature",
      "properties": {
        "@id": "way/386033925",
        "addr:city": "Panama City",
        "building": "yes",
        "name": "Super 99",
        "shop": "supermarket",
        "source": "KG Ground Survey 2015"
      },
      "geometry": {
        "type": "Polygon",
        "coordinates": [
          [
            [
              -79.4843942,
              9.0174717
            ],
            [
              -79.4843709,
              9.0174739
            ],
            [
              -79.4843617,
              9.0173799
            ],
            [
              -79.4842804,
              9.0173876
            ],
            [
              -79.4842778,
              9.0173613
            ],
            [
              -79.4841248,
              9.0173758
            ],
            [
              -79.4841276,
              9.0174045
            ],
            [
              -79.4840426,
              9.0174126
            ],
            [
              -79.4841053,
              9.0180574
            ],
            [
              -79.4844481,
              9.0180248
            ],
            [
              -79.4843942,
              9.0174717
            ]
          ]
        ]
      },
      "id": "way/386033925"
    },
    {
      "type": "Feature",
      "properties": {
        "@id": "way/386033928",
        "addr:city": "Panama City",
        "addr:street": "Vía Cincuentenario",
        "building": "yes",
        "contact:email": "cliente@superxtra.com",
        "contact:phone": "+507 2909000",
        "contact:website": "https://www.superxtra.com",
        "name": "Xtra",
        "opening_hours": "Fr-Sa 00:00-24:00; Mo-Th 06:00-24:00; Su 06:00-23:00",
        "operator": "Puma",
        "shop": "supermarket",
        "source": "KG Ground Survey 2015"
      },
      "geometry": {
        "type": "Polygon",
        "coordinates": [
          [
            [
              -79.4841688,
              9.0169802
            ],
            [
              -79.4840829,
              9.0169895
            ],
            [
              -79.4841021,
              9.0171624
            ],
            [
              -79.4841695,
              9.0171551
            ],
            [
              -79.4841581,
              9.0170515
            ],
            [
              -79.4841764,
              9.0170495
            ],
            [
              -79.4841688,
              9.0169802
            ]
          ]
        ]
      },
      "id": "way/386033928"
    },
    {
      "type": "Feature",
      "properties": {
        "@id": "way/386044746",
        "addr:city": "Panama City",
        "building": "yes",
        "name": "Representaciones DIC S.A.",
        "shop": "supermarket",
        "source": "KG Ground Survey 2015",
        "website": "https://dicsapanama.com/"
      },
      "geometry": {
        "type": "Polygon",
        "coordinates": [
          [
            [
              -79.4794397,
              9.0113305
            ],
            [
              -79.4790682,
              9.0113897
            ],
            [
              -79.4791257,
              9.0117373
            ],
            [
              -79.479496,
              9.0116785
            ],
            [
              -79.4794397,
              9.0113305
            ]
          ]
        ]
      },
      "id": "way/386044746"
    },
    {
      "type": "Feature",
      "properties": {
        "@id": "way/386059121",
        "addr:city": "Panama City",
        "addr:street": "Avenida Centenario",
        "amenity": "pharmacy",
        "building": "yes",
        "healthcare": "pharmacy",
        "name": "Internacional Bio Farmaceutica",
        "source": "KG Ground Survey 2015"
      },
      "geometry": {
        "type": "Polygon",
        "coordinates": [
          [
            [
              -79.4806233,
              9.0142539
            ],
            [
              -79.4805767,
              9.0139755
            ],
            [
              -79.4803998,
              9.014005
            ],
            [
              -79.4803568,
              9.0140117
            ],
            [
              -79.4804019,
              9.0142893
            ],
            [
              -79.4806233,
              9.0142539
            ]
          ]
        ]
      },
      "id": "way/386059121"
    },
    {
      "type": "Feature",
      "properties": {
        "@id": "way/386059125",
        "addr:city": "Panama City",
        "addr:street": "Avenida Centenario",
        "amenity": "pharmacy",
        "building": "yes",
        "healthcare": "pharmacy",
        "name": "U.S. Pharmacy",
        "source": "KG Ground Survey 2015"
      },
      "geometry": {
        "type": "Polygon",
        "coordinates": [
          [
            [
              -79.4792957,
              9.0141747
            ],
            [
              -79.4791073,
              9.0142046
            ],
            [
              -79.4791286,
              9.0143399
            ],
            [
              -79.4791578,
              9.0145307
            ],
            [
              -79.4792067,
              9.0145234
            ],
            [
              -79.4793106,
              9.014574
            ],
            [
              -79.4793139,
              9.0145958
            ],
            [
              -79.4793592,
              9.014589
            ],
            [
              -79.4793391,
              9.0144577
            ],
            [
              -79.4792957,
              9.0141747
            ]
          ]
        ]
      },
      "id": "way/386059125"
    },
    {
      "type": "Feature",
      "properties": {
        "@id": "way/386232659",
        "building": "retail",
        "name": "Supermercado Rey",
        "shop": "supermarket"
      },
      "geometry": {
        "type": "Polygon",
        "coordinates": [
          [
            [
              -79.4839966,
              9.0165879
            ],
            [
              -79.4835212,
              9.0166365
            ],
            [
              -79.4835325,
              9.0167722
            ],
            [
              -79.4829906,
              9.0168321
            ],
            [
              -79.4830036,
              9.016973
            ],
            [
              -79.4829936,
              9.0169726
            ],
            [
              -79.4830186,
              9.0171192
            ],
            [
              -79.4829743,
              9.0171261
            ],
            [
              -79.4830668,
              9.0175528
            ],
            [
              -79.4831303,
              9.0175521
            ],
            [
              -79.4832152,
              9.0179809
            ],
            [
              -79.483307,
              9.017965
            ],
            [
              -79.4833687,
              9.0180963
            ],
            [
              -79.4836555,
              9.0180738
            ],
            [
              -79.4835893,
              9.0174299
            ],
            [
              -79.4836108,
              9.0174274
            ],
            [
              -79.4836005,
              9.0173131
            ],
            [
              -79.4839319,
              9.0172785
            ],
            [
              -79.4838961,
              9.0168913
            ],
            [
              -79.484025,
              9.0168769
            ],
            [
              -79.4839966,
              9.0165879
            ]
          ]
        ]
      },
      "id": "way/386232659"
    },
    {
      "type": "Feature",
      "properties": {
        "@id": "way/386233386",
        "leisure": "park",
        "name": "Parque Felipe Motta"
      },
      "geometry": {
        "type": "Polygon",
        "coordinates": [
          [
            [
              -79.4724196,
              9.0137533
            ],
            [
              -79.4721023,
              9.0116691
            ],
            [
              -79.4700021,
              9.0120148
            ],
            [
              -79.4699232,
              9.0120241
            ],
            [
              -79.4698951,
              9.0124519
            ],
            [
              -79.4697258,
              9.0124768
            ],
            [
              -79.4695708,
              9.0125037
            ],
            [
              -79.4695711,
              9.0156445
            ],
            [
              -79.4716163,
              9.0153194
            ],
            [
              -79.4719477,
              9.015363
            ],
            [
              -79.4724037,
              9.015309
            ],
            [
              -79.472601,
              9.0152782
            ],
            [
              -79.4731187,
              9.0151894
            ],
            [
              -79.4731175,
              9.015182
            ],
            [
              -79.4734828,
              9.0151245
            ],
            [
              -79.4736584,
              9.015097
            ],
            [
              -79.4740227,
              9.015043
            ],
            [
              -79.4740256,
              9.0150661
            ],
            [
              -79.4741901,
              9.0150409
            ],
            [
              -79.4745668,
              9.0149763
            ],
            [
              -79.4747557,
              9.0148709
            ],
            [
              -79.4748159,
              9.0146568
            ],
            [
              -79.4748114,
              9.0146306
            ],
            [
              -79.4746154,
              9.0134196
            ],
            [
              -79.4744877,
              9.0134461
            ],
            [
              -79.4739314,
              9.0135288
            ],
            [
              -79.4724196,
              9.0137533
            ]
          ]
        ]
      },
      "id": "way/386233386"
    },
    {
      "type": "Feature",
      "properties": {
        "@id": "way/386265218",
        "addr:street": "Avenida Ernesto T Lefevre",
        "amenity": "clinic",
        "building": "yes",
        "name": "Mundo Salud",
        "source": "KG Ground Survey 2015"
      },
      "geometry": {
        "type": "Polygon",
        "coordinates": [
          [
            [
              -79.5063583,
              9.0081685
            ],
            [
              -79.5065039,
              9.007716
            ],
            [
              -79.506343,
              9.007769
            ],
            [
              -79.5062276,
              9.0081275
            ],
            [
              -79.5063583,
              9.0081685
            ]
          ]
        ]
      },
      "id": "way/386265218"
    },
    {
      "type": "Feature",
      "properties": {
        "@id": "way/444441133",
        "addr:city": "Panamá",
        "addr:street": "Avenida José Arango",
        "building": "commercial",
        "building:levels": "1",
        "name": "Mega Depot",
        "shop": "supermarket",
        "source": "bing"
      },
      "geometry": {
        "type": "Polygon",
        "coordinates": [
          [
            [
              -79.476442,
              9.0299698
            ],
            [
              -79.4760749,
              9.029613
            ],
            [
              -79.4758637,
              9.0298251
            ],
            [
              -79.4758425,
              9.0298045
            ],
            [
              -79.4756756,
              9.0299719
            ],
            [
              -79.4758031,
              9.0300958
            ],
            [
              -79.4760639,
              9.0303493
            ],
            [
              -79.476442,
              9.0299698
            ]
          ]
        ]
      },
      "id": "way/444441133"
    },
    {
      "type": "Feature",
      "properties": {
        "@id": "way/476796693",
        "building": "yes",
        "name": "Súper 99 Balboa",
        "operator": "Importadora Ricamar, S.A.",
        "shop": "supermarket"
      },
      "geometry": {
        "type": "Polygon",
        "coordinates": [
          [
            [
              -79.486905,
              9.0235132
            ],
            [
              -79.4867307,
              9.023296
            ],
            [
              -79.4868057,
              9.0232391
            ],
            [
              -79.4867756,
              9.0231956
            ],
            [
              -79.4863459,
              9.0234333
            ],
            [
              -79.4864444,
              9.0235552
            ],
            [
              -79.4865204,
              9.0234925
            ],
            [
              -79.4866918,
              9.0236913
            ],
            [
              -79.486905,
              9.0235132
            ]
          ]
        ]
      },
      "id": "way/476796693"
    },
    {
      "type": "Feature",
      "properties": {
        "@id": "way/477023304",
        "amenity": "school",
        "name": "Instituto José Dolores Moscote",
        "operator": "Ministerio de Educación",
        "operator:short": "MEDUCA",
        "operator:type": "government",
        "operator:wikidata": "Q29052356"
      },
      "geometry": {
        "type": "Polygon",
        "coordinates": [
          [
            [
              -79.4888078,
              9.0208732
            ],
            [
              -79.4891033,
              9.0206643
            ],
            [
              -79.4893473,
              9.0204935
            ],
            [
              -79.4894904,
              9.0203932
            ],
            [
              -79.4899037,
              9.0201035
            ],
            [
              -79.4895512,
              9.0196045
            ],
            [
              -79.4895414,
              9.0196115
            ],
            [
              -79.489345,
              9.0193433
            ],
            [
              -79.4893548,
              9.0193363
            ],
            [
              -79.4888623,
              9.018621
            ],
            [
              -79.4877944,
              9.0193701
            ],
            [
              -79.4877985,
              9.0193761
            ],
            [
              -79.4879236,
              9.019556
            ],
            [
              -79.4879549,
              9.0195331
            ],
            [
              -79.4882258,
              9.0198935
            ],
            [
              -79.4881519,
              9.0199476
            ],
            [
              -79.4881577,
              9.0199558
            ],
            [
              -79.4886789,
              9.0206912
            ],
            [
              -79.4886983,
              9.0207186
            ],
            [
              -79.4888078,
              9.0208732
            ]
          ]
        ]
      },
      "id": "way/477023304"
    },
    {
      "type": "Feature",
      "properties": {
        "@id": "way/551719914",
        "addr:city": "Panama City",
        "addr:street": "Avenida Cincuentenario",
        "description": "Parque del Museo de Panamá Viejo",
        "leisure": "park",
        "name": "Parque Panamá Viejo",
        "name:en": "Panama Viejo Park"
      },
      "geometry": {
        "type": "Polygon",
        "coordinates": [
          [
            [
              -79.4928433,
              9.0046141
            ],
            [
              -79.4930936,
              9.004409
            ],
            [
              -79.4933047,
              9.0041934
            ],
            [
              -79.4934609,
              9.0040602
            ],
            [
              -79.4937236,
              9.0039375
            ],
            [
              -79.4943216,
              9.0037728
            ],
            [
              -79.4946091,
              9.0037062
            ],
            [
              -79.4948504,
              9.0036256
            ],
            [
              -79.4950022,
              9.0035626
            ],
            [
              -79.4947214,
              9.0033786
            ],
            [
              -79.494645,
              9.0030488
            ],
            [
              -79.4944141,
              9.0028501
            ],
            [
              -79.4941923,
              9.0028525
            ],
            [
              -79.4938661,
              9.0028912
            ],
            [
              -79.4936866,
              9.00301
            ],
            [
              -79.493469,
              9.0032234
            ],
            [
              -79.4933231,
              9.0033859
            ],
            [
              -79.4932072,
              9.0035391
            ],
            [
              -79.4930947,
              9.0036927
            ],
            [
              -79.4929466,
              9.0039679
            ],
            [
              -79.4929301,
              9.0040867
            ],
            [
              -79.4928338,
              9.0042376
            ],
            [
              -79.4927151,
              9.0043856
            ],
            [
              -79.4928433,
              9.0046141
            ]
          ]
        ]
      },
      "id": "way/551719914"
    },
    {
      "type": "Feature",
      "properties": {
        "@id": "way/552162088",
        "leisure": "park",
        "name": "Parque San Gerardo Mayela"
      },
      "geometry": {
        "type": "Polygon",
        "coordinates": [
          [
            [
              -79.4805386,
              9.0165334
            ],
            [
              -79.4812182,
              9.0161773
            ],
            [
              -79.4803225,
              9.0161917
            ],
            [
              -79.4803289,
              9.0163453
            ],
            [
              -79.4805339,
              9.0163408
            ],
            [
              -79.4805386,
              9.0165334
            ]
          ]
        ]
      },
      "id": "way/552162088"
    },
    {
      "type": "Feature",
      "properties": {
        "@id": "way/552162379",
        "leisure": "park",
        "name": "Parque costa del este"
      },
      "geometry": {
        "type": "Polygon",
        "coordinates": [
          [
            [
              -79.4802431,
              9.0155015
            ],
            [
              -79.4802783,
              9.0154799
            ],
            [
              -79.4803506,
              9.0152123
            ],
            [
              -79.4803749,
              9.0151213
            ],
            [
              -79.4804042,
              9.0150151
            ],
            [
              -79.4804303,
              9.014919
            ],
            [
              -79.4804326,
              9.0149075
            ],
            [
              -79.4804583,
              9.0148132
            ],
            [
              -79.4804898,
              9.0146996
            ],
            [
              -79.4805097,
              9.0146129
            ],
            [
              -79.4797547,
              9.0147998
            ],
            [
              -79.479776,
              9.0149327
            ],
            [
              -79.4798798,
              9.0155607
            ],
            [
              -79.4800727,
              9.0155293
            ],
            [
              -79.4802431,
              9.0155015
            ]
          ]
        ]
      },
      "id": "way/552162379"
    },
    {
      "type": "Feature",
      "properties": {
        "@id": "way/570563152",
        "leisure": "park",
        "name": "Parque Los Pinos"
      },
      "geometry": {
        "type": "Polygon",
        "coordinates": [
          [
            [
              -79.480523,
              9.0247318
            ],
            [
              -79.4810194,
              9.0250471
            ],
            [
              -79.4812021,
              9.0248307
            ],
            [
              -79.4806791,
              9.0244783
            ],
            [
              -79.480523,
              9.0247318
            ]
          ]
        ]
      },
      "id": "way/570563152"
    },
    {
      "type": "Feature",
      "properties": {
        "@id": "way/611238417",
        "leisure": "park",
        "name": "Parque"
      },
      "geometry": {
        "type": "Polygon",
        "coordinates": [
          [
            [
              -79.479315,
              9.025823
            ],
            [
              -79.4792548,
              9.0257024
            ],
            [
              -79.4791823,
              9.0256343
            ],
            [
              -79.4790159,
              9.025505
            ],
            [
              -79.4788549,
              9.0256902
            ],
            [
              -79.4788991,
              9.0257374
            ],
            [
              -79.4787523,
              9.025886
            ],
            [
              -79.4788319,
              9.0259576
            ],
            [
              -79.4789062,
              9.0260415
            ],
            [
              -79.4791026,
              9.0259209
            ],
            [
              -79.479315,
              9.025823
            ]
          ]
        ]
      },
      "id": "way/611238417"
    },
    {
      "type": "Feature",
      "properties": {
        "@id": "way/611238862",
        "leisure": "park",
        "name": "Parque"
      },
      "geometry": {
        "type": "Polygon",
        "coordinates": [
          [
            [
              -79.4773085,
              9.0253164
            ],
            [
              -79.4774209,
              9.025149
            ],
            [
              -79.4772561,
              9.025041
            ],
            [
              -79.4771359,
              9.025143
            ],
            [
              -79.4772761,
              9.0253666
            ],
            [
              -79.4773085,
              9.0253164
            ]
          ]
        ]
      },
      "id": "way/611238862"
    },
    {
      "type": "Feature",
      "properties": {
        "@id": "way/611265855",
        "leisure": "park"
      },
      "geometry": {
        "type": "Polygon",
        "coordinates": [
          [
            [
              -79.4778469,
              9.0229783
            ],
            [
              -79.4777052,
              9.0228886
            ],
            [
              -79.4775452,
              9.0231353
            ],
            [
              -79.4777021,
              9.0232371
            ],
            [
              -79.4778469,
              9.0229783
            ]
          ]
        ]
      },
      "id": "way/611265855"
    },
    {
      "type": "Feature",
      "properties": {
        "@id": "way/614880942",
        "leisure": "park"
      },
      "geometry": {
        "type": "Polygon",
        "coordinates": [
          [
            [
              -79.4779365,
              9.0233357
            ],
            [
              -79.4780828,
              9.0231382
            ],
            [
              -79.4779926,
              9.023073
            ],
            [
              -79.4778463,
              9.0232706
            ],
            [
              -79.4779365,
              9.0233357
            ]
          ]
        ]
      },
      "id": "way/614880942"
    },
    {
      "type": "Feature",
      "properties": {
        "@id": "way/614881513",
        "leisure": "park"
      },
      "geometry": {
        "type": "Polygon",
        "coordinates": [
          [
            [
              -79.4789976,
              9.0240268
            ],
            [
              -79.4791183,
              9.0238493
            ],
            [
              -79.4789655,
              9.0237447
            ],
            [
              -79.4788367,
              9.0239328
            ],
            [
              -79.4789976,
              9.0240268
            ]
          ]
        ]
      },
      "id": "way/614881513"
    },
    {
      "type": "Feature",
      "properties": {
        "@id": "way/614890890",
        "leisure": "park"
      },
      "geometry": {
        "type": "Polygon",
        "coordinates": [
          [
            [
              -79.4762064,
              9.0286727
            ],
            [
              -79.4757936,
              9.0287366
            ],
            [
              -79.4757232,
              9.0294012
            ],
            [
              -79.4758905,
              9.0294327
            ],
            [
              -79.4762953,
              9.0292865
            ],
            [
              -79.4762064,
              9.0286727
            ]
          ]
        ]
      },
      "id": "way/614890890"
    },
    {
      "type": "Feature",
      "properties": {
        "@id": "way/833928672",
        "amenity": "school",
        "name": "C.E.B.G. República de Haití"
      },
      "geometry": {
        "type": "Polygon",
        "coordinates": [
          [
            [
              -79.4927012,
              9.0185986
            ],
            [
              -79.4921997,
              9.0179549
            ],
            [
              -79.4919529,
              9.0179735
            ],
            [
              -79.4917812,
              9.0179231
            ],
            [
              -79.4917223,
              9.018273
            ],
            [
              -79.4921213,
              9.0188307
            ],
            [
              -79.4922666,
              9.0190339
            ],
            [
              -79.4927012,
              9.0185986
            ]
          ]
        ]
      },
      "id": "way/833928672"
    },
    {
      "type": "Feature",
      "properties": {
        "@id": "way/833931412",
        "addr:city": "Parque Lefevre",
        "addr:street": "Avenida 7 Sur",
        "amenity": "school",
        "name": "Escuela Juan B. Sossa"
      },
      "geometry": {
        "type": "Polygon",
        "coordinates": [
          [
            [
              -79.4937963,
              9.0077138
            ],
            [
              -79.4935952,
              9.0075018
            ],
            [
              -79.4934838,
              9.0072647
            ],
            [
              -79.4929876,
              9.0074157
            ],
            [
              -79.4928911,
              9.0074581
            ],
            [
              -79.4928669,
              9.0074833
            ],
            [
              -79.4928549,
              9.0075177
            ],
            [
              -79.4928602,
              9.0080025
            ],
            [
              -79.4930414,
              9.0080037
            ],
            [
              -79.4930394,
              9.0080331
            ],
            [
              -79.4932922,
              9.0080497
            ],
            [
              -79.4934101,
              9.0080515
            ],
            [
              -79.4937963,
              9.0077138
            ]
          ]
        ]
      },
      "id": "way/833931412"
    },
    {
      "type": "Feature",
      "properties": {
        "@id": "way/833934055",
        "addr:city": "Parque Lefevre",
        "addr:street": "Calle Aranjuez",
        "amenity": "school",
        "denomination": "catholic",
        "grades": "PreK-12",
        "name": "Colegio Brader",
        "official_name": "Centro Escolar Madre Caridad Brader",
        "religion": "christian",
        "short_name": "Brader"
      },
      "geometry": {
        "type": "Polygon",
        "coordinates": [
          [
            [
              -79.4736224,
              9.0237233
            ],
            [
              -79.4731101,
              9.0231491
            ],
            [
              -79.4732829,
              9.0230005
            ],
            [
              -79.4725287,
              9.0221634
            ],
            [
              -79.472075,
              9.0225671
            ],
            [
              -79.4719575,
              9.0226713
            ],
            [
              -79.4725877,
              9.0234021
            ],
            [
              -79.4731894,
              9.0241007
            ],
            [
              -79.4736224,
              9.0237233
            ]
          ]
        ]
      },
      "id": "way/833934055"
    },
    {
      "type": "Feature",
      "properties": {
        "@id": "way/833934597",
        "amenity": "school",
        "name": "Escuela Sara Sotillo"
      },
      "geometry": {
        "type": "Polygon",
        "coordinates": [
          [
            [
              -79.4855785,
              9.0128837
            ],
            [
              -79.4856844,
              9.012232
            ],
            [
              -79.4854859,
              9.0122069
            ],
            [
              -79.4854108,
              9.0121949
            ],
            [
              -79.485333,
              9.012191
            ],
            [
              -79.4851587,
              9.0121817
            ],
            [
              -79.4850943,
              9.0128757
            ],
            [
              -79.4855785,
              9.0128837
            ]
          ]
        ]
      },
      "id": "way/833934597"
    },
    {
      "type": "Feature",
      "properties": {
        "@id": "way/833940134",
        "addr:city": "Parque Lefevre",
        "addr:street": "Calle Jose de San Martin",
        "amenity": "school",
        "name": "EScuela María Ossa de Amador"
      },
      "geometry": {
        "type": "Polygon",
        "coordinates": [
          [
            [
              -79.5015824,
              9.0108509
            ],
            [
              -79.5004806,
              9.0106518
            ],
            [
              -79.5003526,
              9.0114717
            ],
            [
              -79.5004371,
              9.0114664
            ],
            [
              -79.5005363,
              9.0113856
            ],
            [
              -79.5006007,
              9.0113021
            ],
            [
              -79.5007066,
              9.0111697
            ],
            [
              -79.500771,
              9.011114
            ],
            [
              -79.5008676,
              9.0110783
            ],
            [
              -79.5010969,
              9.0111286
            ],
            [
              -79.5011961,
              9.0111683
            ],
            [
              -79.5012806,
              9.0111736
            ],
            [
              -79.5013678,
              9.0111405
            ],
            [
              -79.5014027,
              9.0111167
            ],
            [
              -79.5015368,
              9.0110014
            ],
            [
              -79.5015529,
              9.0109577
            ],
            [
              -79.5015824,
              9.0108509
            ]
          ]
        ]
      },
      "id": "way/833940134"
    },
    {
      "type": "Feature",
      "properties": {
        "@id": "way/833940139",
        "addr:city": "Parque Lefevre",
        "addr:street": "Avenida 2 1/2 Sur",
        "amenity": "school",
        "name": "Escuela Manuel Espinosa Batista"
      },
      "geometry": {
        "type": "Polygon",
        "coordinates": [
          [
            [
              -79.5044848,
              9.0043664
            ],
            [
              -79.5043786,
              9.0040605
            ],
            [
              -79.5043433,
              9.0040343
            ],
            [
              -79.504299,
              9.0040185
            ],
            [
              -79.5042123,
              9.0040011
            ],
            [
              -79.5041132,
              9.0040011
            ],
            [
              -79.5039787,
              9.0039923
            ],
            [
              -79.5038425,
              9.004022
            ],
            [
              -79.5037133,
              9.004071
            ],
            [
              -79.503554,
              9.0041724
            ],
            [
              -79.5033894,
              9.0042458
            ],
            [
              -79.5032514,
              9.0043174
            ],
            [
              -79.5031293,
              9.0043996
            ],
            [
              -79.502993,
              9.004459
            ],
            [
              -79.5028409,
              9.0045097
            ],
            [
              -79.5027577,
              9.0045534
            ],
            [
              -79.50274,
              9.0045883
            ],
            [
              -79.5027612,
              9.0047002
            ],
            [
              -79.5028196,
              9.0047631
            ],
            [
              -79.5028833,
              9.0047876
            ],
            [
              -79.5030426,
              9.0047596
            ],
            [
              -79.5031576,
              9.0047421
            ],
            [
              -79.5032178,
              9.0047998
            ],
            [
              -79.5044848,
              9.0043664
            ]
          ]
        ]
      },
      "id": "way/833940139"
    },
    {
      "type": "Feature",
      "properties": {
        "@id": "way/1053823344",
        "amenity": "school",
        "name": "Parvulario Municipal",
        "operator": "MUPA",
        "operator:type": "government"
      },
      "geometry": {
        "type": "Polygon",
        "coordinates": [
          [
            [
              -79.4871508,
              9.0096609
            ],
            [
              -79.4874342,
              9.0094904
            ],
            [
              -79.4870707,
              9.0089123
            ],
            [
              -79.4869536,
              9.0089792
            ],
            [
              -79.4872833,
              9.0094478
            ],
            [
              -79.4870861,
              9.0095665
            ],
            [
              -79.4871508,
              9.0096609
            ]
          ]
        ]
      },
      "id": "way/1053823344"
    },
    {
      "type": "Feature",
      "properties": {
        "@id": "way/1097850817",
        "leisure": "park",
        "name": "Parque de Chanis"
      },
      "geometry": {
        "type": "Polygon",
        "coordinates": [
          [
            [
              -79.4820206,
              9.0233509
            ],
            [
              -79.4829241,
              9.0220192
            ],
            [
              -79.482963,
              9.0218584
            ],
            [
              -79.4829772,
              9.0217151
            ],
            [
              -79.482556,
              9.0218864
            ],
            [
              -79.4819296,
              9.0221416
            ],
            [
              -79.4815438,
              9.0223373
            ],
            [
              -79.4813421,
              9.0225575
            ],
            [
              -79.4811986,
              9.0228087
            ],
            [
              -79.4818968,
              9.0232684
            ],
            [
              -79.4820124,
              9.0233453
            ],
            [
              -79.4820206,
              9.0233509
            ]
          ]
        ]
      },
      "id": "way/1097850817"
    },
    {
      "type": "Feature",
      "properties": {
        "@id": "way/1097850818",
        "leisure": "park",
        "name": "Parque Calle 109 Chanis"
      },
      "geometry": {
        "type": "Polygon",
        "coordinates": [
          [
            [
              -79.4828431,
              9.0237859
            ],
            [
              -79.4828376,
              9.0237495
            ],
            [
              -79.4828378,
              9.0237137
            ],
            [
              -79.4824242,
              9.023472
            ],
            [
              -79.4821958,
              9.02381
            ],
            [
              -79.4826592,
              9.0241153
            ],
            [
              -79.4828577,
              9.0238288
            ],
            [
              -79.4828431,
              9.0237859
            ]
          ]
        ]
      },
      "id": "way/1097850818"
    },
    {
      "type": "Feature",
      "properties": {
        "@id": "way/1097850819",
        "leisure": "park",
        "name": "Parque Via Carrara"
      },
      "geometry": {
        "type": "Polygon",
        "coordinates": [
          [
            [
              -79.4813372,
              9.0188252
            ],
            [
              -79.4812495,
              9.0186295
            ],
            [
              -79.4811986,
              9.0185158
            ],
            [
              -79.4811757,
              9.0185202
            ],
            [
              -79.4810817,
              9.0185373
            ],
            [
              -79.481066,
              9.0185404
            ],
            [
              -79.4810435,
              9.0188941
            ],
            [
              -79.4810394,
              9.0189668
            ],
            [
              -79.4811809,
              9.0189
            ],
            [
              -79.4813372,
              9.0188252
            ]
          ]
        ]
      },
      "id": "way/1097850819"
    },
    {
      "type": "Feature",
      "properties": {
        "@id": "way/1097850820",
        "leisure": "park",
        "name": "Parque Comunal La Fontana"
      },
      "geometry": {
        "type": "Polygon",
        "coordinates": [
          [
            [
              -79.4803315,
              9.0175725
            ],
            [
              -79.480257,
              9.0172283
            ],
            [
              -79.4801334,
              9.0171952
            ],
            [
              -79.4800472,
              9.0171721
            ],
            [
              -79.4800257,
              9.0174553
            ],
            [
              -79.4800118,
              9.0176382
            ],
            [
              -79.4803315,
              9.0175725
            ]
          ]
        ]
      },
      "id": "way/1097850820"
    },
    {
      "type": "Feature",
      "properties": {
        "@id": "way/1284460069",
        "addr:city": "Parque Lefevre",
        "addr:street": "Avenida Cincuentenario",
        "amenity": "hospital",
        "emergency": "yes",
        "healthcare": "hospital",
        "healthcare:speciality": "general",
        "name": "Policentro de Salud Luis H. Moreno",
        "opening_hours": "Mo-Fr 07:00-19:00, Sa-Su 08:00-14:00",
        "operator": "MINSA",
        "operator:type": "government",
        "phone": "+5075129670",
        "website": "https://www.minsa.gob.pa/"
      },
      "geometry": {
        "type": "Polygon",
        "coordinates": [
          [
            [
              -79.4871664,
              9.02244
            ],
            [
              -79.4873994,
              9.0222781
            ],
            [
              -79.4875699,
              9.0221597
            ],
            [
              -79.4876315,
              9.0221169
            ],
            [
              -79.4876939,
              9.0220736
            ],
            [
              -79.4876587,
              9.0220243
            ],
            [
              -79.4874947,
              9.0217945
            ],
            [
              -79.4872475,
              9.0219702
            ],
            [
              -79.487016,
              9.0221348
            ],
            [
              -79.4870552,
              9.0222144
            ],
            [
              -79.4871214,
              9.0223486
            ],
            [
              -79.4871664,
              9.02244
            ]
          ]
        ]
      },
      "id": "way/1284460069"
    },
    {
      "type": "Feature",
      "properties": {
        "@id": "way/1286147950",
        "amenity": "school",
        "name": "Boston School International"
      },
      "geometry": {
        "type": "Polygon",
        "coordinates": [
          [
            [
              -79.4763356,
              9.0082146
            ],
            [
              -79.4763911,
              9.0084487
            ],
            [
              -79.4764263,
              9.0085971
            ],
            [
              -79.4764305,
              9.0086188
            ],
            [
              -79.4765372,
              9.0085934
            ],
            [
              -79.4768897,
              9.0085096
            ],
            [
              -79.4769288,
              9.0085003
            ],
            [
              -79.4769097,
              9.008422
            ],
            [
              -79.4768101,
              9.0080119
            ],
            [
              -79.4763542,
              9.0080799
            ],
            [
              -79.476303,
              9.0080875
            ],
            [
              -79.4763253,
              9.0081715
            ],
            [
              -79.4763356,
              9.0082146
            ]
          ]
        ]
      },
      "id": "way/1286147950"
    },
    {
      "type": "Feature",
      "properties": {
        "@id": "way/1286147963",
        "leisure": "park",
        "name": "Este Park"
      },
      "geometry": {
        "type": "Polygon",
        "coordinates": [
          [
            [
              -79.4759277,
              9.0137918
            ],
            [
              -79.4757255,
              9.013687
            ],
            [
              -79.4756441,
              9.0136507
            ],
            [
              -79.475204,
              9.0147388
            ],
            [
              -79.4751694,
              9.0148412
            ],
            [
              -79.4751654,
              9.0149335
            ],
            [
              -79.4751836,
              9.0150249
            ],
            [
              -79.4752253,
              9.0150881
            ],
            [
              -79.4759277,
              9.0137918
            ]
          ]
        ]
      },
      "id": "way/1286147963"
    },
    {
      "type": "Feature",
      "properties": {
        "@id": "way/1286407355",
        "amenity": "clinic",
        "building": "yes",
        "building:levels": "3",
        "healthcare": "clinic",
        "name": "MED"
      },
      "geometry": {
        "type": "Polygon",
        "coordinates": [
          [
            [
              -79.4823745,
              9.0136963
            ],
            [
              -79.482554,
              9.0136675
            ],
            [
              -79.4825038,
              9.0133515
            ],
            [
              -79.4824742,
              9.0133561
            ],
            [
              -79.4824583,
              9.0132557
            ],
            [
              -79.4823333,
              9.013275
            ],
            [
              -79.4823389,
              9.0133101
            ],
            [
              -79.4823139,
              9.0133139
            ],
            [
              -79.4823745,
              9.0136963
            ]
          ]
        ]
      },
      "id": "way/1286407355"
    },
    {
      "type": "Feature",
      "properties": {
        "@id": "way/1299888777",
        "amenity": "pharmacy",
        "building": "yes",
        "healthcare": "pharmacy",
        "name": "Farmacias Revilla"
      },
      "geometry": {
        "type": "Polygon",
        "coordinates": [
          [
            [
              -79.47988,
              9.0276011
            ],
            [
              -79.4799627,
              9.0277356
            ],
            [
              -79.4800545,
              9.0276805
            ],
            [
              -79.4799717,
              9.027546
            ],
            [
              -79.47988,
              9.0276011
            ]
          ]
        ]
      },
      "id": "way/1299888777"
    },
    {
      "type": "Feature",
      "properties": {
        "@id": "way/1326286506",
        "amenity": "school",
        "name": "Academia Interamericana de Panama"
      },
      "geometry": {
        "type": "Polygon",
        "coordinates": [
          [
            [
              -79.4759973,
              9.011933
            ],
            [
              -79.4744159,
              9.0121868
            ],
            [
              -79.4746154,
              9.0134196
            ],
            [
              -79.4748114,
              9.0146306
            ],
            [
              -79.4750206,
              9.0145864
            ],
            [
              -79.4752273,
              9.0140738
            ],
            [
              -79.475278,
              9.0139482
            ],
            [
              -79.4754565,
              9.0135053
            ],
            [
              -79.4754827,
              9.0134405
            ],
            [
              -79.4756674,
              9.0129823
            ],
            [
              -79.4757879,
              9.0126835
            ],
            [
              -79.4758919,
              9.0123107
            ],
            [
              -79.4759973,
              9.011933
            ]
          ]
        ]
      },
      "id": "way/1326286506"
    },
    {
      "type": "Feature",
      "properties": {
        "@id": "way/1326286510",
        "amenity": "school",
        "name": "The Casco School - Costa del Este"
      },
      "geometry": {
        "type": "Polygon",
        "coordinates": [
          [
            [
              -79.4774554,
              9.0142809
            ],
            [
              -79.4774236,
              9.0140917
            ],
            [
              -79.4769865,
              9.0141607
            ],
            [
              -79.4769979,
              9.0142334
            ],
            [
              -79.4770101,
              9.0143115
            ],
            [
              -79.4770161,
              9.0143501
            ],
            [
              -79.4770627,
              9.0143428
            ],
            [
              -79.4772096,
              9.0143198
            ],
            [
              -79.4774554,
              9.0142809
            ]
          ]
        ]
      },
      "id": "way/1326286510"
    },
    {
      "type": "Feature",
      "properties": {
        "@id": "way/1340375890",
        "leisure": "park"
      },
      "geometry": {
        "type": "Polygon",
        "coordinates": [
          [
            [
              -79.4970723,
              9.0067808
            ],
            [
              -79.4971416,
              9.0065612
            ],
            [
              -79.4970076,
              9.00652
            ],
            [
              -79.4969383,
              9.0067396
            ],
            [
              -79.4970723,
              9.0067808
            ]
          ]
        ]
      },
      "id": "way/1340375890"
    },
    {
      "type": "Feature",
      "properties": {
        "@id": "way/1433877788",
        "leisure": "park",
        "name": "Parque Sandalo"
      },
      "geometry": {
        "type": "Polygon",
        "coordinates": [
          [
            [
              -79.4961071,
              9.015009
            ],
            [
              -79.4959656,
              9.0148493
            ],
            [
              -79.4958646,
              9.0147351
            ],
            [
              -79.4957163,
              9.0148632
            ],
            [
              -79.4959587,
              9.0151371
            ],
            [
              -79.4961071,
              9.015009
            ]
          ]
        ]
      },
      "id": "way/1433877788"
    },
    {
      "type": "Feature",
      "properties": {
        "@id": "node/3894036663",
        "addr:city": "Panama City",
        "name": "Market 7",
        "shop": "supermarket",
        "source": "KG Ground Survey 2015"
      },
      "geometry": {
        "type": "Point",
        "coordinates": [
          -79.4776804,
          9.0148021
        ]
      },
      "id": "node/3894036663"
    },
    {
      "type": "Feature",
      "properties": {
        "@id": "node/3894159643",
        "addr:city": "Panama City",
        "addr:street": "Avenida de la Rotonda",
        "amenity": "clinic",
        "healthcare": "clinic",
        "name": "Clínica Arango Orillac",
        "source": "KG Ground Survey 2015"
      },
      "geometry": {
        "type": "Point",
        "coordinates": [
          -79.4739703,
          9.0106941
        ]
      },
      "id": "node/3894159643"
    },
    {
      "type": "Feature",
      "properties": {
        "@id": "node/4698222121",
        "addr:city": "Panama City",
        "addr:country": "PA",
        "addr:housenumber": "29",
        "addr:street": "Calle 86 Este",
        "amenity": "school",
        "name": "Panama Urban Training Center",
        "phone": "+507 390 6370",
        "website": "https://victoryoutreach.org/connect/urban-training-center/utc-panama/"
      },
      "geometry": {
        "type": "Point",
        "coordinates": [
          -79.50115,
          9.00759
        ]
      },
      "id": "node/4698222121"
    },
    {
      "type": "Feature",
      "properties": {
        "@id": "node/12138874392",
        "addr:city": "Panama City",
        "addr:street": "Calle 3",
        "amenity": "pharmacy",
        "healthcare": "pharmacy",
        "name": "Farmavalue",
        "source": "KG Ground Survey 2015"
      },
      "geometry": {
        "type": "Point",
        "coordinates": [
          -79.4844644,
          9.0145832
        ]
      },
      "id": "node/12138874392"
    },
    {
      "type": "Feature",
      "properties": {
        "@id": "node/12138881742",
        "name": "Jumbo Market",
        "phone": "+507 67290746",
        "shop": "supermarket"
      },
      "geometry": {
        "type": "Point",
        "coordinates": [
          -79.4846819,
          9.0148582
        ]
      },
      "id": "node/12138881742"
    },
    {
      "type": "Feature",
      "properties": {
        "@id": "node/13620760699",
        "name": "Super 99 | Río Abajo",
        "shop": "supermarket"
      },
      "geometry": {
        "type": "Point",
        "coordinates": [
          -79.500036,
          9.0130081
        ]
      },
      "id": "node/13620760699"
    },
    {
      "type": "Feature",
      "properties": {
        "@id": "node/13664842055",
        "amenity": "pharmacy",
        "email": "cliente@superxtra.com",
        "healthcare": "pharmacy",
        "name": "Xtra Farma",
        "opening_hours": "Mo-Sa 06:00-23:00; Su 06:00-22:00",
        "phone": "+507 2909000",
        "website": "https://www.superxtra.com/xtra-farma-sucursales"
      },
      "geometry": {
        "type": "Point",
        "coordinates": [
          -79.4834741,
          9.0168176
        ]
      },
      "id": "node/13664842055"
    }
  ]
}